1998-067XK              
1 65731U 98067XK  26024.73973597  .00205490  00000+0  11894-2 0  9990
2 65731  51.6251 277.4071 0004227 143.0939 217.0353 15.77428239 19904
RSP-03                  
1 65732U 98067XL  26025.49022940  .00415301  00000+0  15108-2 0  9998
2 65732  51.6206 271.1241 0005300 165.8000 194.3154 15.86833271 20060
YOTSUBA-KULOVER         
1 65941U 98067XN  26025.63786342  .00136068  00000+0  12205-2 0  9994
2 65941  51.6265 278.1763 0004425 163.1319 196.9825 15.67338887 16727
BOTAN                   
1 65942U 98067XP  26025.61180227  .00273960  00000+0  16435-2 0  9995
2 65942  51.6220 275.7312 0005005 171.6243 188.4842 15.76416676 16758
E-KAGAKU-1              
1 65943U 98067XQ  26024.74525476  .00118261  00000+0  10762-2 0  9997
2 65943  51.6279 282.7241 0003092 165.0419 195.0669 15.67057145 16582
HRC MONOBLOCK CAMERA    
1 66052U 98067XR  26024.75210934  .00051429  00000+0  68384-3 0  9996
2 66052  51.6291 286.5154 0000666  32.7434 327.3599 15.57665609 15539
HTV-X1                  
1 66174U 25241A   26025.52956391  .00014870  00000+0  28510-3 0  9991
2 66174  51.6317 285.7043 0010958  29.6295 330.5312 15.48176704   510
SZ-21 MODULE            
1 66515U 25246C   26025.60489790  .00040571  00000+0  39793-3 0  9990
2 66515  41.4752 107.9254 0003260 237.6166 122.4359 15.65292049 11313
SHENZHOU-22             
1 66645U 25272A   26025.62929125  .00027552  00000+0  32006-3 0  9990
2 66645  41.4667 109.8872 0009914   0.3997 359.6849 15.61068734267643
SOYUZ-MS 28             
1 66664U 25275A   26025.52956391  .00014870  00000+0  28510-3 0  9992
2 66664  51.6317 285.7043 0010958  29.6295 330.5312 15.48176704  1289
DUPLEX                  
1 66906U 98067XS  26024.94024903  .00034926  00000+0  55195-3 0  9993
2 66906  51.6306 287.7709 0001882  54.3804 305.7361 15.53137539  8323
1998-067XT              
1 66907U 98067XT  26024.73193951  .00104793  00000+0  13425-2 0  9990
2 66907  51.6289 287.8796 0003231 118.4461 241.6857 15.58344051  8302
